#dP2019 11 12  0  0  0.00000000      97 __u+U IGS08 FIT  IAC
## 2079 172800.00000000   900.00000000 58799 0.0000000000000
+  114   C01C02C03C04C05C06C07C08C09C10C11C13C14C16C18C19C20
+        C21C22C23C24C25C26C27C28C29C30C32C33C34C35C36C37E01
+        E02E03E04E05E07E08E09E12E13E14E15E18E19E21E24E25E26
+        E27E30E31E33E36G01G02G03G04G05G06G07G08G09G10G11G12
+        G13G14G15G16G17G18G19G20G21G22G23G24G25G26G27G28G29
+        G30G31G32J01J02J03J07R01R02R03R05R07R08R09R11R12R13
+        R14R15R16R17R18R19R20R21R22R23R24R26  0  0  0  0  0
++        14 13  0 14 13  8  8  8  8  8  7  8  7  8 13  7  7
++         7  7  7  7  7  7  8  7  7  7  8  8  7  7  9  8  4
++         4  3  4  3  4  4  4  4  4  4  4  4  4  4  4  4  4
++         4  4  4  4  4  3  3  3  3  3  3  3  3  3  3  3  3
++         3  3  3  3  3  3  3  3  3  3  3  3  3  3  3  3  3
++         3  3  3  8  8  8 13  6  5  5  5  5  5  5  5  5  6
++         5  5  6  5  5  6  6  5  5  5  6  7  0  0  0  0  0
%c M  cc GPS ccc cccc cccc cccc cccc ccccc ccccc ccccc ccccc
%c cc cc ccc ccc cccc cccc cccc cccc ccccc ccccc ccccc ccccc
%f  1.2500000  1.025000000  0.00000000000  0.000000000000000
%f  0.0000000  0.000000000  0.00000000000  0.000000000000000
%i    0    0    0    0      0      0      0      0         0
%i    0    0    0    0      0      0      0      0         0
/* INFORMATION & ANALYSIS CENTER (IAC)            FINAL DATA
/* S/V CLOCKS ARE ALIGNED TO GNSS TIME                      
/* G:C1WC2W R:C1PC2P E:C1XC5X C:C2IC6I J:C1CC2S             
/* PCV:IGS14_2076 OL/AL:FES2004  NONE     YN ORB:CoN CLK:CoN
*  2019 11 12  3 15  0.00000000
PC01 -32312.989995  27062.199310   -788.459237    128.787840
PC02   4464.891959  41918.466490   1015.693068    744.823802
PC03 -14795.665789  39508.107174    302.544665 999999.999999
PC04 -39597.493691  14441.237426   -340.562476   -416.599788
PC05  21909.087364  36033.934688   1237.065737    -73.600102
PC06 -10881.207746  36398.859581  19047.108433    322.921864
PC07 -15424.957365  21553.455680 -32650.878859   -257.365550
PC08 -25601.999582  29701.244651  15136.363887    -31.867298
PC09   -545.496572  42266.379693   3007.672240    109.231724
PC10   1880.521918  27360.238188 -31766.203365   -357.887663
PC11  -3291.785655  27030.803314   6000.547499      2.866840
PC13 -11622.378244  30483.817137  26622.516039    101.530986
PC14   5750.425794  21702.831416  16560.246746    113.869577
PC16  -7852.744344  38192.066483  16300.733255   -916.168959
PC18   7296.172821  41514.450543  -1007.469740     12.679790
PC19 -13976.738568 -22336.637196  -9194.044295    242.670353
PC20   2655.826604 -17957.751754 -21193.782941   -280.624815
PC21 -18253.210509   2699.914028  20948.369757    188.678206
PC22 -22743.024465 -13871.458732   8354.132170   -351.355001
PC23  23646.906879   4083.777495 -14234.349447   -883.131389
PC24 -13841.861702  16628.104217 -17609.611742   -879.630508
PC25   7678.906409  14397.862937 -22638.604136   -411.112371
PC26 -25946.410843   9812.639126  -2884.844686    457.144259
PC27  16726.530162 -12499.398724  18495.373087    223.479464
PC28  13995.374800   8286.745967  22680.407461    214.623220
PC29  -4022.274320 -24036.146805 -13601.302666    144.879983
PC30   8841.677435 -26196.752429   3728.899205    222.932482
PC32  18228.096180  -2847.913587 -20930.439310   -871.367620
PC33  13993.698069  22282.899057   9269.677846   -559.289373
PC34  -8742.167460  26293.081537  -3392.533935   -226.809131
PC35 -14283.914449  -7923.824695 -22618.412809   -543.606241
PC36  -7132.625931 -14653.086980  22683.687950   -912.424171
PC37  26348.533943  -8909.710317   2377.797630   -738.157286
PE01   2569.984693 -16156.042727  24676.756457   -729.992138
PE02  -2472.240288  16163.159088 -24666.638765     91.289487
PE03   1542.691186  26985.079161  12042.738185   -232.052335
PE04 -14628.609858 -25000.513377   6097.703974   -403.951675
PE05 -12586.743149  13180.136981  23318.629463   -432.042430
PE07  19272.037464   8239.863114 -20898.061445   -297.972550
PE08  14864.344067  24805.162629  -6291.086727   6264.413369
PE09 -19216.771945  -8108.950429  21007.305527   6255.692289
PE12  -7154.301488 -16321.420941 -23629.037205   6104.265617
PE13  19983.676443  -2689.980533  21679.018932    395.282848
PE14 -16378.516631  17619.448066 -20148.054084   -791.099689
PE15   7423.106612  16011.503168  23770.716971    888.128103
PE18   6614.751192 -23537.401361   7817.462915   -886.000684
PE19    -41.140394 -26176.925928 -13819.586405     -2.950945
PE21  22485.772398  -8403.733179  17323.446843   -565.411783
PE24 -29252.409019  -4458.652265    176.539438   5771.824235
PE25 -22562.501675   8336.681111 -17239.710321   -495.496643
PE26  20985.519545 -19799.526718   6654.896467   3887.275879
PE27  29281.726571   4337.732172   -241.058226    347.572342
PE30  18767.836980  14641.431296 -17601.181183   4391.943711
PE31 -18855.157919 -14505.240517  17630.831705   -470.438389
PE33   9532.936085 -25364.523420 -11911.231015   -471.762444
PE36 -20846.592594  19855.633708  -6859.458793    637.945204
PG01   8711.733868 -19057.166207 -16328.454549   -194.323165
PG02 -21794.742838  14728.733436  -2510.862418   -344.976867
PG03  -3117.881875 -17093.932676 -20172.082944    -35.361017
PG04  -8920.749282 -22235.451681  11452.602545     -8.132917
PG05 -17206.863913   7057.203417  18895.340284     -3.352004
PG06 -21860.698667   2815.666284 -14794.461438   -120.845085
PG07  -8250.151318 -13095.450869  21860.730084   -146.908252
PG08   6435.333858 -22599.286848  12198.754836    -13.061823
PG09  -7661.176525 -24187.259787   7787.109923    -81.087527
PG10  24142.632284  11356.529996   -356.648802   -131.097950
PG11   5906.339577 -24580.863960  -9144.002794   -450.737209
PG12  -3125.613316  15092.793554 -21864.012614    184.444892
PG13 -12722.083998  15494.788792  17263.830181    -33.363224
PG14  15051.352967  -1400.326446 -21508.017394    -50.995003
PG15  -4200.082586  23525.356999  10872.322778   -273.287724
PG16  19017.223105  -2907.942965  18312.443032    -92.286612
PG17 -13420.495551 -10568.525592 -19937.704659    161.352562
PG18  15060.366160 -19854.456823  -9551.919528     99.553052
PG19 -14770.622678  -2424.622506 -22234.186851   -240.986676
PG20  20092.841566  14446.026617   9797.511066    527.440680
PG21  11845.288185  10695.291885  22007.918226    -87.507769
PG22   5109.355494 -14971.629628 -21119.365367   -771.032826
PG23  -1275.038965 -26243.629936  -1624.011829   -156.060482
PG24  -9686.932586  20306.509884 -14006.575355     -4.759966
PG25  12554.797510  17941.606879 -15425.832692    -17.025565
PG26  24264.827102   2467.152849  10738.079375     82.274721
PG27  12413.643070 -12361.506077  19751.214884   -117.096420
PG28 -22896.991716 -13262.341186   -717.001795    755.472878
PG29   4652.037429  25217.519082   6841.490226     46.614988
PG30 -18079.623224  -4999.740738  18908.550821    -81.915753
PG31  23167.796506  -4178.531889 -12754.357512     -2.600358
PG32  14798.897450   9556.922460 -19854.981501    122.107450
PJ01 -25864.675407  22094.878978  29951.568032   -332.797008
PJ02 -32513.588787  17774.087173 -15580.891519     -7.559093
PJ03 -21150.802949  30106.643683 -15987.015835     -6.206520
PJ07 -25367.633092  33667.670333     28.727653     -0.019717
PR01  14658.030314  20848.399554    896.142115     52.539603
PR02  16143.666201   8326.332403 -17904.730894    397.321806
PR03   7471.108361  -8359.669942 -22876.671232      4.685572
PR05 -15291.107530 -20325.279743   1770.300035     39.243739
PR07  -7067.158905   8918.229457  22859.232419    -29.303899
PR08   5407.827068  20053.377355  14862.159189     14.486420
PR09 -25460.849669   1932.655587    762.789897    100.611342
PR11  -2461.511747  11257.673294 -22739.997083     20.268446
PR12  15394.454215   7546.279169 -18863.657906     78.439809
PR13  25233.787940   -807.119436  -3644.191978    -30.830498
PR14  20026.564398  -8244.500623  13483.713123     44.975686
PR15   3423.286635 -11108.923099  22731.446493    104.703583
PR16 -15687.245958  -7342.392351  18659.220555      0.593936
PR17  14035.381599 -18540.032598  10550.025608    275.334709
PR18   7857.749369 -23377.666382  -6402.807970     14.197015
PR19  -1946.735906 -15921.027071 -19835.747758    -63.493664
PR20 -12344.220885   2525.122564 -22175.874170   -395.926373
PR21 -13872.903140  18988.922247  -9834.679898    -84.685616
PR22  -6339.082695  22947.102648   9321.945540   -184.452709
PR23   5942.584378  10820.287041  22315.858929    266.243876
PR24  12978.565634  -4904.220771  21381.273452   -186.661116
PR26 -10932.624393  -1069.288495 -23004.886024      8.357841
EOF
